{
  "norad_id": 47832,
  "name": "STARLINK-2422",
  "history": [
    {
      "epoch": "2026-03-28T11:30:57.517632Z",
      "apogee_km": 476.0529825887061,
      "perigee_km": 474.43078780658016,
      "latitude_deg": 7.176053859415566e-05,
      "longitude_deg": 159.57441652815658,
      "height_km": 476.18749237908014,
      "semi_major_axis_km": 6853.378885197643,
      "eccentricity": 0.00011835,
      "inclination_deg": 53.1595,
      "raan_deg": 158.2137,
      "arg_perigee_deg": 93.3559,
      "mean_anomaly_deg": 266.7578,
      "mean_motion_rev_day": 15.30191019
    }
  ]
}